{"type":"FeatureCollection","features":[{"type":"Feature","properties":{"fill":"#ff0000","fill-opacity":0.8,"stroke":"#000000","name":"buildingA"},"geometry":{"type":"Polygon","coordinates":[[[2.35,48.85],[2.3501,48.85],[2.3501,48.8501],[2.35,48.8501],[2.35,48.85]],[[2.35002,48.85002],[2.35006,48.85002],[2.35006,48.85006],[2.35002,48.85006],[2.35002,48.85002]],[[2.35007,48.85007],[2.35009,48.85007],[2.35009,48.85009],[2.35007,48.85009],[2.35007,48.85007]]]}},{"type":"Feature","properties":{"color":"#3366cc","name":"buildingB"},"geometry":{"type":"Polygon","coordinates":[[[2.3503,48.85],[2.3504,48.85],[2.3504,48.85005],[2.3503,48.85005],[2.3503,48.85]]]}},{"type":"Feature","properties":{"name":"road","stroke":"#808080"},"geometry":{"type":"LineString","coordinates":[[2.3499,48.8499],[2.35005,48.85003],[2.3502,48.85003],[2.35045,48.8501]]}},{"type":"Feature","properties":{"name":"grove"},"geometry":{"type":"MultiPoint","coordinates":[[2.35012,48.85012],[2.35018,48.85015]]}},{"type":"Feature","properties":{"name":"lamp","marker-color":"#228B22"},"geometry":{"type":"Point","coordinates":[2.35005,48.85018]}}]}